{"type": "FeatureCollection", "features": [ {"type": "Feature", "properties": {"norad_id": 33492, "name": "GOSAT (IBUKI)", "group": "resource", "lat": 44.5362287265636, "lon": -62.625798221391236, "alt_km": 664.4854970087636, "timestamp": "2025-12-26T22:28:05.435921+00:00", "meta": {"OBJECT_NAME": "GOSAT (IBUKI)", "OBJECT_ID": "2009-002A", "EPOCH": "2025-12-26T07:07:43.620960", "MEAN_MOTION": 14.67550857, "ECCENTRICITY": 0.0001037, "INCLINATION": 98.0771, "RA_OF_ASC_NODE": 108.712, "ARG_OF_PERICENTER": 105.7066, "MEAN_ANOMALY": 254.4253, "EPHEMERIS_TYPE": 0, "CLASSIFICATION_TYPE": "U", "NORAD_CAT_ID": 33492, "ELEMENT_SET_NO": 999, "REV_AT_EPOCH": 90610, "BSTAR": 0.00017142, "MEAN_MOTION_DOT": 9.24e-06, "MEAN_MOTION_DDOT": 0}, "tle": {"line1": "1 33492U 09002A   25360.29703265  .00000924  00000+0  17142-3 0  9994", "line2": "2 33492  98.0771 108.7120 0001037 105.7066 254.4253 14.67550857906109"}}, "geometry": {"type": "Point", "coordinates": [-62.625798221391236, 44.5362287265636]}}, {"type": "Feature", "properties": {"norad_id": 35681, "name": "DEIMOS-1", "group": "resource", "lat": -50.26473342089114, "lon": -28.507563902707556, "alt_km": 653.8157217181733, "timestamp": "2025-12-26T22:28:05.435933+00:00", "meta": {"OBJECT_NAME": "DEIMOS-1", "OBJECT_ID": "2009-041A", "EPOCH": "2025-12-26T18:10:07.222656", "MEAN_MOTION": 14.74974663, "ECCENTRICITY": 0.0002382, "INCLINATION": 97.7159, "RA_OF_ASC_NODE": 160.7086, "ARG_OF_PERICENTER": 58.3867, "MEAN_ANOMALY": 301.7575, "EPHEMERIS_TYPE": 0, "CLASSIFICATION_TYPE": "U", "NORAD_CAT_ID": 35681, "ELEMENT_SET_NO": 999, "REV_AT_EPOCH": 88146, "BSTAR": 0.00016265, "MEAN_MOTION_DOT": 1.046e-05, "MEAN_MOTION_DDOT": 0}, "tle": {"line1": "1 35681U 09041A   25360.75702804  .00001046  00000+0  16265-3 0  9999", "line2": "2 35681  97.7159 160.7086 0002382  58.3867 301.7575 14.74974663881469"}}, "geometry": {"type": "Point", "coordinates": [-28.507563902707556, -50.26473342089114]}}, {"type": "Feature", "properties": {"norad_id": 35682, "name": "DUBAISAT-1", "group": "resource", "lat": 31.019960065811375, "lon": -43.75347517494022, "alt_km": 647.340966035853, "timestamp": "2025-12-26T22:28:05.435943+00:00", "meta": {"OBJECT_NAME": "DUBAISAT-1", "OBJECT_ID": "2009-041B", "EPOCH": "2025-12-26T15:16:54.704928", "MEAN_MOTION": 14.74642191, "ECCENTRICITY": 0.0009257, "INCLINATION": 97.9799, "RA_OF_ASC_NODE": 131.1127, "ARG_OF_PERICENTER": 264.3825, "MEAN_ANOMALY": 95.6328, "EPHEMERIS_TYPE": 0, "CLASSIFICATION_TYPE": "U", "NORAD_CAT_ID": 35682, "ELEMENT_SET_NO": 999, "REV_AT_EPOCH": 87966, "BSTAR": 0.00022737, "MEAN_MOTION_DOT": 1.467e-05, "MEAN_MOTION_DDOT": 0}, "tle": {"line1": "1 35682U 09041B   25360.63674427  .00001467  00000+0  22737-3 0  9994", "line2": "2 35682  97.9799 131.1127 0009257 264.3825  95.6328 14.74642191879663"}}, "geometry": {"type": "Point", "coordinates": [-43.75347517494022, 31.019960065811375]}}, {"type": "Feature", "properties": {"norad_id": 35931, "name": "OCEANSAT-2", "group": "resource", "lat": 77.95644624390012, "lon": -137.24232174921926, "alt_km": 888.004924617805, "timestamp": "2025-12-26T22:28:05.435954+00:00", "meta": {"OBJECT_NAME": "OCEANSAT-2", "OBJECT_ID": "2009-051A", "EPOCH": "2025-12-26T18:34:02.591904", "MEAN_MOTION": 13.99623073, "ECCENTRICITY": 0.0015864, "INCLINATION": 98.2218, "RA_OF_ASC_NODE": 359.9501, "ARG_OF_PERICENTER": 8.1315, "MEAN_ANOMALY": 352.0105, "EPHEMERIS_TYPE": 0, "CLASSIFICATION_TYPE": "U", "NORAD_CAT_ID": 35931, "ELEMENT_SET_NO": 999, "REV_AT_EPOCH": 85521, "BSTAR": 4.9022e-05, "MEAN_MOTION_DOT": 3.4e-07, "MEAN_MOTION_DDOT": 0}, "tle": {"line1": "1 35931U 09051A   25360.77364111  .00000034  00000+0  49022-4 0  9999", "line2": "2 35931  98.2218 359.9501 0015864   8.1315 352.0105 13.99623073855217"}}, "geometry": {"type": "Point", "coordinates": [-137.24232174921926, 77.95644624390012]}}, {"type": "Feature", "properties": {"norad_id": 35946, "name": "WORLDVIEW-2 (WV-2)", "group": "resource", "lat": 4.780045353617818, "lon": 71.1110244534634, "alt_km": 765.4496866949939, "timestamp": "2025-12-26T22:28:05.435965+00:00", "meta": {"OBJECT_NAME": "WORLDVIEW-2 (WV-2)", "OBJECT_ID": "2009-055A", "EPOCH": "2025-12-26T17:26:05.985888", "MEAN_MOTION": 14.37730244, "ECCENTRICITY": 0.0004634, "INCLINATION": 98.4771, "RA_OF_ASC_NODE": 71.6188, "ARG_OF_PERICENTER": 35.8919, "MEAN_ANOMALY": 324.2578, "EPHEMERIS_TYPE": 0, "CLASSIFICATION_TYPE": "U", "NORAD_CAT_ID": 35946, "ELEMENT_SET_NO": 999, "REV_AT_EPOCH": 85086, "BSTAR": 7.7753e-05, "MEAN_MOTION_DOT": 1.9e-06, "MEAN_MOTION_DDOT": 0}, "tle": {"line1": "1 35946U 09055A   25360.72645817  .00000190  00000+0  77753-4 0  9994", "line2": "2 35946  98.4771  71.6188 0004634  35.8919 324.2578 14.37730244850861"}}, "geometry": {"type": "Point", "coordinates": [71.1110244534634, 4.780045353617818]}}, {"type": "Feature", "properties": {"norad_id": 36036, "name": "SMOS", "group": "resource", "lat": 35.925308111829615, "lon": 11.948745561625211, "alt_km": 756.4564636399718, "timestamp": "2025-12-26T22:28:05.435976+00:00", "meta": {"OBJECT_NAME": "SMOS", "OBJECT_ID": "2009-059A", "EPOCH": "2025-12-26T11:47:46.851072", "MEAN_MOTION": 14.39753392, "ECCENTRICITY": 0.000104, "INCLINATION": 98.4382, "RA_OF_ASC_NODE": 185.3364, "ARG_OF_PERICENTER": 83.5124, "MEAN_ANOMALY": 276.6183, "EPHEMERIS_TYPE": 0, "CLASSIFICATION_TYPE": "U", "NORAD_CAT_ID": 36036, "ELEMENT_SET_NO": 999, "REV_AT_EPOCH": 84860, "BSTAR": 0.00014539, "MEAN_MOTION_DOT": 4.12e-06, "MEAN_MOTION_DDOT": 0}, "tle": {"line1": "1 36036U 09059A   25360.49151448  .00000412  00000+0  14539-3 0  9994", "line2": "2 36036  98.4382 185.3364 0001040  83.5124 276.6183 14.39753392848607"}}, "geometry": {"type": "Point", "coordinates": [11.948745561625211, 35.925308111829615]}}, {"type": "Feature", "properties": {"norad_id": 36110, "name": "YAOGAN-7", "group": "resource", "lat": 71.30532276639929, "lon": 87.29728513471623, "alt_km": 639.2372404256976, "timestamp": "2025-12-26T22:28:05.435986+00:00", "meta": {"OBJECT_NAME": "YAOGAN-7", "OBJECT_ID": "2009-069A", "EPOCH": "2025-12-26T15:29:02.012352", "MEAN_MOTION": 14.77752551, "ECCENTRICITY": 0.0023522, "INCLINATION": 98.0293, "RA_OF_ASC_NODE": 242.3521, "ARG_OF_PERICENTER": 233.9323, "MEAN_ANOMALY": 125.9709, "EPHEMERIS_TYPE": 0, "CLASSIFICATION_TYPE": "U", "NORAD_CAT_ID": 36110, "ELEMENT_SET_NO": 999, "REV_AT_EPOCH": 86414, "BSTAR": 0.00010378, "MEAN_MOTION_DOT": 6.94e-06, "MEAN_MOTION_DDOT": 0}, "tle": {"line1": "1 36110U 09069A   25360.64516218  .00000694  00000+0  10378-3 0  9994", "line2": "2 36110  98.0293 242.3521 0023522 233.9323 125.9709 14.77752551864142"}}, "geometry": {"type": "Point", "coordinates": [87.29728513471623, 71.30532276639929]}}, {"type": "Feature", "properties": {"norad_id": 36605, "name": "TANDEM-X", "group": "resource", "lat": -54.032714921135906, "lon": 16.491146899263974, "alt_km": 516.4406085551336, "timestamp": "2025-12-26T22:28:05.435997+00:00", "meta": {"OBJECT_NAME": "TANDEM-X", "OBJECT_ID": "2010-030A", "EPOCH": "2025-12-26T13:13:25.252608", "MEAN_MOTION": 15.1915819, "ECCENTRICITY": 0.0001776, "INCLINATION": 97.4455, "RA_OF_ASC_NODE": 5.7293, "ARG_OF_PERICENTER": 92.0278, "MEAN_ANOMALY": 268.116, "EPHEMERIS_TYPE": 0, "CLASSIFICATION_TYPE": "U", "NORAD_CAT_ID": 36605, "ELEMENT_SET_NO": 999, "REV_AT_EPOCH": 86043, "BSTAR": 6.7415e-05, "MEAN_MOTION_DOT": 1.349e-05, "MEAN_MOTION_DDOT": 0}, "tle": {"line1": "1 36605U 10030A   25360.55098672  .00001349  00000+0  67415-4 0  9995", "line2": "2 36605  97.4455   5.7293 0001776  92.0278 268.1160 15.19158190860436"}}, "geometry": {"type": "Point", "coordinates": [16.491146899263974, -54.032714921135906]}}, {"type": "Feature", "properties": {"norad_id": 36795, "name": "CARTOSAT-2B", "group": "resource", "lat": 80.74729002092486, "lon": -7.592128929204691, "alt_km": 620.2840331972302, "timestamp": "2025-12-26T22:28:05.436007+00:00", "meta": {"OBJECT_NAME": "CARTOSAT-2B", "OBJECT_ID": "2010-035A", "EPOCH": "2025-12-26T17:12:51.124896", "MEAN_MOTION": 14.78747393, "ECCENTRICITY": 0.0012502, "INCLINATION": 97.7831, "RA_OF_ASC_NODE": 49.2915, "ARG_OF_PERICENTER": 35.1738, "MEAN_ANOMALY": 325.0296, "EPHEMERIS_TYPE": 0, "CLASSIFICATION_TYPE": "U", "NORAD_CAT_ID": 36795, "ELEMENT_SET_NO": 999, "REV_AT_EPOCH": 83436, "BSTAR": 0.00017726, "MEAN_MOTION_DOT": 1.253e-05, "MEAN_MOTION_DDOT": 0}, "tle": {"line1": "1 36795U 10035A   25360.71725839  .00001253  00000+0  17726-3 0  9993", "line2": "2 36795  97.7831  49.2915 0012502  35.1738 325.0296 14.78747393834368"}}, "geometry": {"type": "Point", "coordinates": [-7.592128929204691, 80.74729002092486]}}, {"type": "Feature", "properties": {"norad_id": 36834, "name": "YAOGAN-10", "group": "resource", "lat": 71.9311116815358, "lon": -134.1146436142093, "alt_km": 606.9064210417491, "timestamp": "2025-12-26T22:28:05.436017+00:00", "meta": {"OBJECT_NAME": "YAOGAN-10", "OBJECT_ID": "2010-038A", "EPOCH": "2025-12-26T19:31:55.132320", "MEAN_MOTION": 14.84658382, "ECCENTRICITY": 0.0001332, "INCLINATION": 97.9134, "RA_OF_ASC_NODE": 20.5283, "ARG_OF_PERICENTER": 78.8449, "MEAN_ANOMALY": 93.9235, "EPHEMERIS_TYPE": 0, "CLASSIFICATION_TYPE": "U", "NORAD_CAT_ID": 36834, "ELEMENT_SET_NO": 999, "REV_AT_EPOCH": 83162, "BSTAR": 0.00013964, "MEAN_MOTION_DOT": 1.127e-05, "MEAN_MOTION_DDOT": 0}, "tle": {"line1": "1 36834U 10038A   25360.81383255  .00001127  00000+0  13964-3 0  9993", "line2": "2 36834  97.9134  20.5283 0001332  78.8449  93.9235 14.84658382831628"}}, "geometry": {"type": "Point", "coordinates": [-134.1146436142093, 71.9311116815358]}}]}